{"type": "FeatureCollection", "features": [ {"type": "Feature", "properties": {"norad_id": 34553, "name": "COSMOS 2251 DEB", "group": "cosmos-2251-debris", "lat": -35.61532512016293, "lon": -3.9893757173513826, "alt_km": 693.6631307903644, "timestamp": "2025-12-27T07:26:25.615109+00:00", "meta": {"OBJECT_NAME": "COSMOS 2251 DEB", "OBJECT_ID": "1993-036UP", "EPOCH": "2025-12-26T10:49:08.948064", "MEAN_MOTION": 14.57851907, "ECCENTRICITY": 0.0019035, "INCLINATION": 74.025, "RA_OF_ASC_NODE": 165.8036, "ARG_OF_PERICENTER": 242.4865, "MEAN_ANOMALY": 147.2003, "EPHEMERIS_TYPE": 0, "CLASSIFICATION_TYPE": "U", "NORAD_CAT_ID": 34553, "ELEMENT_SET_NO": 999, "REV_AT_EPOCH": 88296, "BSTAR": 0.0012095, "MEAN_MOTION_DOT": 5.528e-05, "MEAN_MOTION_DDOT": 0}, "tle": {"line1": "1 34553U 93036UP  25360.45079801  .00005528  00000+0  12095-2 0  9999", "line2": "2 34553  74.0250 165.8036 0019035 242.4865 147.2003 14.57851907882965"}}, "geometry": {"type": "Point", "coordinates": [-3.9893757173513826, -35.61532512016293]}}, {"type": "Feature", "properties": {"norad_id": 34554, "name": "COSMOS 2251 DEB", "group": "cosmos-2251-debris", "lat": 3.568782593513641, "lon": -86.8137971360612, "alt_km": 753.0727215227917, "timestamp": "2025-12-27T07:26:25.615119+00:00", "meta": {"OBJECT_NAME": "COSMOS 2251 DEB", "OBJECT_ID": "1993-036UQ", "EPOCH": "2025-12-26T18:12:27.499968", "MEAN_MOTION": 14.37965556, "ECCENTRICITY": 0.00235796, "INCLINATION": 74.039, "RA_OF_ASC_NODE": 273.1783, "ARG_OF_PERICENTER": 332.916, "MEAN_ANOMALY": 57.668, "EPHEMERIS_TYPE": 0, "CLASSIFICATION_TYPE": "U", "NORAD_CAT_ID": 34554, "ELEMENT_SET_NO": 999, "REV_AT_EPOCH": 87957, "BSTAR": 0.00031632746, "MEAN_MOTION_DOT": 9.33e-06, "MEAN_MOTION_DDOT": 0}, "tle": {"line1": "1 34554U 93036UQ  25360.75865162  .00000933  00000+0  31633-3 0  9991", "line2": "2 34554  74.0390 273.1783 0023579 332.9160  57.6680 14.37965556879576"}}, "geometry": {"type": "Point", "coordinates": [-86.8137971360612, 3.568782593513641]}}, {"type": "Feature", "properties": {"norad_id": 34556, "name": "COSMOS 2251 DEB", "group": "cosmos-2251-debris", "lat": 70.11209316260044, "lon": -136.19801013755733, "alt_km": 625.1650414197911, "timestamp": "2025-12-27T07:26:25.615129+00:00", "meta": {"OBJECT_NAME": "COSMOS 2251 DEB", "OBJECT_ID": "1993-036US", "EPOCH": "2025-12-26T06:45:30.335040", "MEAN_MOTION": 14.78213795, "ECCENTRICITY": 0.0006041, "INCLINATION": 74.0152, "RA_OF_ASC_NODE": 98.2328, "ARG_OF_PERICENTER": 157.1628, "MEAN_ANOMALY": 234.2756, "EPHEMERIS_TYPE": 0, "CLASSIFICATION_TYPE": "U", "NORAD_CAT_ID": 34556, "ELEMENT_SET_NO": 999, "REV_AT_EPOCH": 88529, "BSTAR": 0.0021721, "MEAN_MOTION_DOT": 0.00015763, "MEAN_MOTION_DDOT": 0}, "tle": {"line1": "1 34556U 93036US  25360.28160110  .00015763  00000+0  21721-2 0  9995", "line2": "2 34556  74.0152  98.2328 0006041 157.1628 234.2756 14.78213795885295"}}, "geometry": {"type": "Point", "coordinates": [-136.19801013755733, 70.11209316260044]}}, {"type": "Feature", "properties": {"norad_id": 34560, "name": "COSMOS 2251 DEB", "group": "cosmos-2251-debris", "lat": 53.32909623469885, "lon": 136.38674389821452, "alt_km": 655.1516433480465, "timestamp": "2025-12-27T07:26:25.615139+00:00", "meta": {"OBJECT_NAME": "COSMOS 2251 DEB", "OBJECT_ID": "1993-036UW", "EPOCH": "2025-12-26T17:04:38.801280", "MEAN_MOTION": 14.72497641, "ECCENTRICITY": 0.00135494, "INCLINATION": 74.0169, "RA_OF_ASC_NODE": 114.9128, "ARG_OF_PERICENTER": 199.4977, "MEAN_ANOMALY": 286.084, "EPHEMERIS_TYPE": 0, "CLASSIFICATION_TYPE": "U", "NORAD_CAT_ID": 34560, "ELEMENT_SET_NO": 999, "REV_AT_EPOCH": 88457, "BSTAR": 0.0022819052, "MEAN_MOTION_DOT": 0.0001451, "MEAN_MOTION_DDOT": 0}, "tle": {"line1": "1 34560U 93036UW  25360.71156020  .00014510  00000+0  22819-2 0  9991", "line2": "2 34560  74.0169 114.9128 0013549 199.4977 286.0840 14.72497641884576"}}, "geometry": {"type": "Point", "coordinates": [136.38674389821452, 53.32909623469885]}}, {"type": "Feature", "properties": {"norad_id": 34563, "name": "COSMOS 2251 DEB", "group": "cosmos-2251-debris", "lat": -74.02415425930714, "lon": 87.53567477659539, "alt_km": 733.990378024936, "timestamp": "2025-12-27T07:26:25.615150+00:00", "meta": {"OBJECT_NAME": "COSMOS 2251 DEB", "OBJECT_ID": "1993-036UZ", "EPOCH": "2025-12-26T18:37:48.023328", "MEAN_MOTION": 14.46553942, "ECCENTRICITY": 0.00139023, "INCLINATION": 74.0365, "RA_OF_ASC_NODE": 177.5011, "ARG_OF_PERICENTER": 270.8505, "MEAN_ANOMALY": 100.91, "EPHEMERIS_TYPE": 0, "CLASSIFICATION_TYPE": "U", "NORAD_CAT_ID": 34563, "ELEMENT_SET_NO": 999, "REV_AT_EPOCH": 88400, "BSTAR": 0.00049252066, "MEAN_MOTION_DOT": 1.75e-05, "MEAN_MOTION_DDOT": 0}, "tle": {"line1": "1 34563U 93036UZ  25360.77625027  .00001750  00000+0  49252-3 0  9991", "line2": "2 34563  74.0365 177.5011 0013902 270.8505 100.9100 14.46553942884006"}}, "geometry": {"type": "Point", "coordinates": [87.53567477659539, -74.02415425930714]}}, {"type": "Feature", "properties": {"norad_id": 34564, "name": "COSMOS 2251 DEB", "group": "cosmos-2251-debris", "lat": 69.01894637653251, "lon": -17.249913649929184, "alt_km": 761.2275577564533, "timestamp": "2025-12-27T07:26:25.615160+00:00", "meta": {"OBJECT_NAME": "COSMOS 2251 DEB", "OBJECT_ID": "1993-036VA", "EPOCH": "2025-12-26T21:03:32.956128", "MEAN_MOTION": 14.40712431, "ECCENTRICITY": 0.0019493, "INCLINATION": 74.031, "RA_OF_ASC_NODE": 211.855, "ARG_OF_PERICENTER": 313.8248, "MEAN_ANOMALY": 67.2563, "EPHEMERIS_TYPE": 0, "CLASSIFICATION_TYPE": "U", "NORAD_CAT_ID": 34564, "ELEMENT_SET_NO": 999, "REV_AT_EPOCH": 88210, "BSTAR": 0.0002286667, "MEAN_MOTION_DOT": 7.06e-06, "MEAN_MOTION_DDOT": 0}, "tle": {"line1": "1 34564U 93036VA  25360.87746477  .00000706  00000+0  22867-3 0  9999", "line2": "2 34564  74.0310 211.8550 0019493 313.8248  67.2563 14.40712431882101"}}, "geometry": {"type": "Point", "coordinates": [-17.249913649929184, 69.01894637653251]}}, {"type": "Feature", "properties": {"norad_id": 34567, "name": "COSMOS 2251 DEB", "group": "cosmos-2251-debris", "lat": -3.936420117810734, "lon": 129.42869140775292, "alt_km": 862.7616403064494, "timestamp": "2025-12-27T07:26:25.615169+00:00", "meta": {"OBJECT_NAME": "COSMOS 2251 DEB", "OBJECT_ID": "1993-036VD", "EPOCH": "2025-12-26T18:30:40.311360", "MEAN_MOTION": 14.24032429, "ECCENTRICITY": 0.00740336, "INCLINATION": 74.0413, "RA_OF_ASC_NODE": 131.5262, "ARG_OF_PERICENTER": 202.7595, "MEAN_ANOMALY": 272.239, "EPHEMERIS_TYPE": 0, "CLASSIFICATION_TYPE": "U", "NORAD_CAT_ID": 34567, "ELEMENT_SET_NO": 999, "REV_AT_EPOCH": 87324, "BSTAR": 0.00027646321, "MEAN_MOTION_DOT": 6.28e-06, "MEAN_MOTION_DDOT": 0}, "tle": {"line1": "1 34567U 93036VD  25360.77129990  .00000628  00000+0  27646-3 0  9999", "line2": "2 34567  74.0413 131.5262 0074033 202.7595 272.2390 14.24032429873243"}}, "geometry": {"type": "Point", "coordinates": [129.42869140775292, -3.936420117810734]}}, {"type": "Feature", "properties": {"norad_id": 34569, "name": "COSMOS 2251 DEB", "group": "cosmos-2251-debris", "lat": -19.653495003964128, "lon": -2.324511809452624, "alt_km": 917.7664070076307, "timestamp": "2025-12-27T07:26:25.615180+00:00", "meta": {"OBJECT_NAME": "COSMOS 2251 DEB", "OBJECT_ID": "1993-036VF", "EPOCH": "2025-12-26T13:58:05.758176", "MEAN_MOTION": 14.24786035, "ECCENTRICITY": 0.015791, "INCLINATION": 73.9894, "RA_OF_ASC_NODE": 173.1059, "ARG_OF_PERICENTER": 358.3355, "MEAN_ANOMALY": 70.1274, "EPHEMERIS_TYPE": 0, "CLASSIFICATION_TYPE": "U", "NORAD_CAT_ID": 34569, "ELEMENT_SET_NO": 999, "REV_AT_EPOCH": 87165, "BSTAR": 0.00046481, "MEAN_MOTION_DOT": 1.207e-05, "MEAN_MOTION_DDOT": 0}, "tle": {"line1": "1 34569U 93036VF  25360.58201109  .00001207  00000+0  46481-3 0  9995", "line2": "2 34569  73.9894 173.1059 0157910 358.3355  70.1274 14.24786035871658"}}, "geometry": {"type": "Point", "coordinates": [-2.324511809452624, -19.653495003964128]}}, {"type": "Feature", "properties": {"norad_id": 34570, "name": "COSMOS 2251 DEB", "group": "cosmos-2251-debris", "lat": -73.01599367676016, "lon": 83.3643403133409, "alt_km": 1036.4774567045188, "timestamp": "2025-12-27T07:26:25.615190+00:00", "meta": {"OBJECT_NAME": "COSMOS 2251 DEB", "OBJECT_ID": "1993-036VG", "EPOCH": "2025-12-27T00:02:12.355296", "MEAN_MOTION": 13.99844871, "ECCENTRICITY": 0.0190326, "INCLINATION": 73.9555, "RA_OF_ASC_NODE": 193.4797, "ARG_OF_PERICENTER": 72.7711, "MEAN_ANOMALY": 78.0663, "EPHEMERIS_TYPE": 0, "CLASSIFICATION_TYPE": "U", "NORAD_CAT_ID": 34570, "ELEMENT_SET_NO": 999, "REV_AT_EPOCH": 85800, "BSTAR": 0.00053484766, "MEAN_MOTION_DOT": 8.94e-06, "MEAN_MOTION_DDOT": 0}, "tle": {"line1": "1 34570U 93036VG  25361.00153189  .00000894  00000+0  53485-3 0  9992", "line2": "2 34570  73.9555 193.4797 0190326  72.7711  78.0663 13.99844871858006"}}, "geometry": {"type": "Point", "coordinates": [83.3643403133409, -73.01599367676016]}}, {"type": "Feature", "properties": {"norad_id": 34571, "name": "COSMOS 2251 DEB", "group": "cosmos-2251-debris", "lat": 11.631731018563345, "lon": -28.251234530148395, "alt_km": 686.0868107020669, "timestamp": "2025-12-27T07:26:25.615200+00:00", "meta": {"OBJECT_NAME": "COSMOS 2251 DEB", "OBJECT_ID": "1993-036VH", "EPOCH": "2025-12-24T20:40:26.923008", "MEAN_MOTION": 14.49017935, "ECCENTRICITY": 0.0064888, "INCLINATION": 74.0401, "RA_OF_ASC_NODE": 159.7142, "ARG_OF_PERICENTER": 192.1385, "MEAN_ANOMALY": 167.8215, "EPHEMERIS_TYPE": 0, "CLASSIFICATION_TYPE": "U", "NORAD_CAT_ID": 34571, "ELEMENT_SET_NO": 999, "REV_AT_EPOCH": 87469, "BSTAR": 0.003002, "MEAN_MOTION_DOT": 0.00011689, "MEAN_MOTION_DDOT": 0}, "tle": {"line1": "1 34571U 93036VH  25358.86142272  .00011689  00000+0  30020-2 0  9997", "line2": "2 34571  74.0401 159.7142 0064888 192.1385 167.8215 14.49017935874697"}}, "geometry": {"type": "Point", "coordinates": [-28.251234530148395, 11.631731018563345]}}]}